[{"OBJECT_NAME":"STARLINK-1448","OBJECT_ID":"2020-035J","EPOCH":"2026-03-10T00:00:02.999808","MEAN_MOTION":15.52376322,"ECCENTRICITY":0.00079659,"INCLINATION":53.0511,"RA_OF_ASC_NODE":51.24,"ARG_OF_PERICENTER":79.1097,"MEAN_ANOMALY":73.0484,"EPHEMERIS_TYPE":0,"CLASSIFICATION_TYPE":"U","NORAD_CAT_ID":45665,"ELEMENT_SET_NO":999,"REV_AT_EPOCH":591,"BSTAR":0.001926692,"MEAN_MOTION_DOT":0.00121047,"MEAN_MOTION_DDOT":0},{"OBJECT_NAME":"DEMO8 (TENZING)","OBJECT_ID":"2021-059CA","EPOCH":"2026-03-09T12:02:09.080736","MEAN_MOTION":15.50975268,"ECCENTRICITY":0.00070099,"INCLINATION":97.7052,"RA_OF_ASC_NODE":254.6062,"ARG_OF_PERICENTER":356.8203,"MEAN_ANOMALY":3.3002,"EPHEMERIS_TYPE":0,"CLASSIFICATION_TYPE":"U","NORAD_CAT_ID":48951,"ELEMENT_SET_NO":999,"REV_AT_EPOCH":26183,"BSTAR":0.00038914706,"MEAN_MOTION_DOT":0.00022523,"MEAN_MOTION_DDOT":0}]
